$$SOE
2460714.500000000, A.D. 2025-Feb-08 00:00:00.0000, -6.136361184181661E+09, -1.807378363238111E+09, 2.791325808764201E+08,
2460721.500000000, A.D. 2025-Feb-15 00:00:00.0000, -6.135803468010118E+09, -1.810128475685068E+09, 2.793290822343186E+08,
2460728.500000000, A.D. 2025-Feb-22 00:00:00.0000, -6.135244625156571E+09, -1.812878342829737E+09, 2.795255325392224E+08,
2460735.500000000, A.D. 2025-Mar-01 00:00:00.0000, -6.134684653575906E+09, -1.815627963808629E+09, 2.797219315907314E+08,
2460742.500000000, A.D. 2025-Mar-08 00:00:00.0000, -6.134123550141226E+09, -1.818377337873900E+09, 2.799182790374994E+08,
2460749.500000000, A.D. 2025-Mar-15 00:00:00.0000, -6.133561310666099E+09, -1.821126462557853E+09, 2.801145745327640E+08,
2460756.500000000, A.D. 2025-Mar-22 00:00:00.0000, -6.132997932134951E+09, -1.823875333250371E+09, 2.803108179782618E+08,
2460763.500000000, A.D. 2025-Mar-29 00:00:00.0000, -6.132433413564139E+09, -1.826623945031050E+09, 2.805070094593639E+08,
2460770.500000000, A.D. 2025-Apr-05 00:00:00.0000, -6.131867755168444E+09, -1.829372293617620E+09, 2.807031490977900E+08,
2460777.500000000, A.D. 2025-Apr-12 00:00:00.0000, -6.131300957758938E+09, -1.832120375326429E+09, 2.808992370067527E+08,
2460784.500000000, A.D. 2025-Apr-19 00:00:00.0000, -6.130733022559443E+09, -1.834868186926081E+09, 2.810952732933901E+08,
2460791.500000000, A.D. 2025-Apr-26 00:00:00.0000, -6.130163951169888E+09, -1.837615725586924E+09, 2.812912580667146E+08,
2460798.500000000, A.D. 2025-May-03 00:00:00.0000, -6.129593745562915E+09, -1.840362988906809E+09, 2.814871914419938E+08,
2460805.500000000, A.D. 2025-May-10 00:00:00.0000, -6.129022408085122E+09, -1.843109975004124E+09, 2.816830735394689E+08,
2460812.500000000, A.D. 2025-May-17 00:00:00.0000, -6.128449941426242E+09, -1.845856682718810E+09, 2.818789044705569E+08,
2460819.500000000, A.D. 2025-May-24 00:00:00.0000, -6.127876348382292E+09, -1.848603111975527E+09, 2.820746842910399E+08,
2460826.500000000, A.D. 2025-May-31 00:00:00.0000, -6.127301630994973E+09, -1.851349263997760E+09, 2.822704129082845E+08,
2460833.500000000, A.D. 2025-Jun-07 00:00:00.0000, -6.126725789468213E+09, -1.854095140167834E+09, 2.824660900777055E+08,
2460840.500000000, A.D. 2025-Jun-14 00:00:00.0000, -6.126148823226433E+09, -1.856840740199500E+09, 2.826617156508567E+08,
2460847.500000000, A.D. 2025-Jun-21 00:00:00.0000, -6.125570732897764E+09, -1.859586062894272E+09, 2.828572896962289E+08,
2460854.500000000, A.D. 2025-Jun-28 00:00:00.0000, -6.124991520094017E+09, -1.862331107716638E+09, 2.830528123500779E+08,
2460861.500000000, A.D. 2025-Jul-05 00:00:00.0000, -6.124411186504131E+09, -1.865075875031556E+09, 2.832482837126805E+08,
2460868.500000000, A.D. 2025-Jul-12 00:00:00.0000, -6.123829733492084E+09, -1.867820365809379E+09, 2.834437038334912E+08,
2460875.500000000, A.D. 2025-Jul-19 00:00:00.0000, -6.123247162009715E+09, -1.870564581373163E+09, 2.836390727208951E+08,
2460882.500000000, A.D. 2025-Jul-26 00:00:00.0000, -6.122663472614533E+09, -1.873308523244754E+09, 2.838343903527558E+08,
2460889.500000000, A.D. 2025-Aug-02 00:00:00.0000, -6.122078665527088E+09, -1.876052193067872E+09, 2.840296566836461E+08,
2460896.500000000, A.D. 2025-Aug-09 00:00:00.0000, -6.121492740704523E+09, -1.878795592622559E+09, 2.842248716455562E+08,
2460903.500000000, A.D. 2025-Aug-16 00:00:00.0000, -6.120905697853367E+09, -1.881538723993993E+09, 2.844200351300306E+08,
2460910.500000000, A.D. 2025-Aug-23 00:00:00.0000, -6.120317536088898E+09, -1.884281589878862E+09, 2.846151469264529E+08,
2460917.500000000, A.D. 2025-Aug-30 00:00:00.0000, -6.119728252912189E+09, -1.887024193315051E+09, 2.848102066448864E+08,
2460924.500000000, A.D. 2025-Sep-06 00:00:00.0000, -6.119137843922946E+09, -1.889766535834168E+09, 2.850052138355474E+08,
2460931.500000000, A.D. 2025-Sep-13 00:00:00.0000, -6.118546304938888E+09, -1.892508616519627E+09, 2.852001682554927E+08,
2460938.500000000, A.D. 2025-Sep-20 00:00:00.0000, -6.117953633248435E+09, -1.895250433614559E+09, 2.853950698481632E+08,
2460945.500000000, A.D. 2025-Sep-27 00:00:00.0000, -6.117359826938171E+09, -1.897991985567825E+09, 2.855899185932020E+08,
2460952.500000000, A.D. 2025-Oct-04 00:00:00.0000, -6.116764884311775E+09, -1.900733270978719E+09, 2.857847144557511E+08,
2460959.500000000, A.D. 2025-Oct-11 00:00:00.0000, -6.116168803774038E+09, -1.903474288383192E+09, 2.859794573925491E+08,
2460966.500000000, A.D. 2025-Oct-18 00:00:00.0000, -6.115571583896354E+09, -1.906215036155728E+09, 2.861741473664178E+08,
2460973.500000000, A.D. 2025-Oct-25 00:00:00.0000, -6.114973223524110E+09, -1.908955512515557E+09, 2.863687843572140E+08,
2460980.500000000, A.D. 2025-Nov-01 00:00:00.0000, -6.114373721886599E+09, -1.911695715621301E+09, 2.865633683667863E+08,
2460987.500000000, A.D. 2025-Nov-08 00:00:00.0000, -6.113773078674922E+09, -1.914435643785027E+09, 2.867578994120517E+08,
2460994.500000000, A.D. 2025-Nov-15 00:00:00.0000, -6.113171293940101E+09, -1.917175295863768E+09, 2.869523774876414E+08,
2461001.500000000, A.D. 2025-Nov-22 00:00:00.0000, -6.112568367408724E+09, -1.919914671607992E+09, 2.871468024789616E+08,
2461008.500000000, A.D. 2025-Nov-29 00:00:00.0000, -6.111964297369440E+09, -1.922653770831551E+09, 2.873411741322549E+08,
2461015.500000000, A.D. 2025-Dec-06 00:00:00.0000, -6.111359081407739E+09, -1.925392591538738E+09, 2.875354922792361E+08,
2461022.500000000, A.D. 2025-Dec-13 00:00:00.0000, -6.110752718555414E+09, -1.928131130378443E+09, 2.877297570009370E+08,
2461029.500000000, A.D. 2025-Dec-20 00:00:00.0000, -6.110145209361566E+09, -1.930869384401863E+09, 2.879239684938531E+08,
2461036.500000000, A.D. 2025-Dec-27 00:00:00.0000, -6.109536554958935E+09, -1.933607351532061E+09, 2.881181269485881E+08,
2461043.500000000, A.D. 2026-Jan-03 00:00:00.0000, -6.108926756584822E+09, -1.936345030360368E+09, 2.883122325245052E+08,
2461050.500000000, A.D. 2026-Jan-10 00:00:00.0000, -6.108315815446810E+09, -1.939082419947853E+09, 2.885062853548737E+08,
2461057.500000000, A.D. 2026-Jan-17 00:00:00.0000, -6.107703732700736E+09, -1.941819519722607E+09, 2.887002855537558E+08,
2461064.500000000, A.D. 2026-Jan-24 00:00:00.0000, -6.107090509462968E+09, -1.944556329449301E+09, 2.888942332194409E+08,
2461071.500000000, A.D. 2026-Jan-31 00:00:00.0000, -6.106476146833529E+09, -1.947292849277480E+09, 2.890881284317681E+08,
2461078.500000000, A.D. 2026-Feb-07 00:00:00.0000, -6.105860645868561E+09, -1.950029079925032E+09, 2.892819712331229E+08,
2461085.500000000, A.D. 2026-Feb-14 00:00:00.0000, -6.105244007249067E+09, -1.952765023011226E+09, 2.894757615687577E+08,
2461092.500000000, A.D. 2026-Feb-21 00:00:00.0000, -6.104626230258356E+09, -1.955500680961507E+09, 2.896694991981477E+08,
2461099.500000000, A.D. 2026-Feb-28 00:00:00.0000, -6.104007312153055E+09, -1.958236055329955E+09, 2.898631837712440E+08,
2461106.500000000, A.D. 2026-Mar-07 00:00:00.0000, -6.103387249986224E+09, -1.960971145489029E+09, 2.900568150991480E+08,
2461113.500000000, A.D. 2026-Mar-14 00:00:00.0000, -6.102766042106852E+09, -1.963705950019173E+09, 2.902503931740784E+08,
2461120.500000000, A.D. 2026-Mar-21 00:00:00.0000, -6.102143687552876E+09, -1.966440467900235E+09, 2.904439180120326E+08,
2461127.500000000, A.D. 2026-Mar-28 00:00:00.0000, -6.101520185347108E+09, -1.969174698476007E+09, 2.906373895866351E+08,
2461134.500000000, A.D. 2026-Apr-04 00:00:00.0000, -6.100895534299789E+09, -1.971908641157532E+09, 2.908308078307827E+08,
2461141.500000000, A.D. 2026-Apr-11 00:00:00.0000, -6.100269733043837E+09, -1.974642295225147E+09, 2.910241726517329E+08,
2461148.500000000, A.D. 2026-Apr-18 00:00:00.0000, -6.099642780143413E+09, -1.977375659735965E+09, 2.912174839446793E+08,
2461155.500000000, A.D. 2026-Apr-25 00:00:00.0000, -6.099014674229712E+09, -1.980108733522109E+09, 2.914107416020132E+08,
2461162.500000000, A.D. 2026-May-02 00:00:00.0000, -6.098385414132963E+09, -1.982841515309322E+09, 2.916039455132285E+08,
2461169.500000000, A.D. 2026-May-09 00:00:00.0000, -6.097754998885672E+09, -1.985574004022170E+09, 2.917970955387957E+08,
2461176.500000000, A.D. 2026-May-16 00:00:00.0000, -6.097123427218743E+09, -1.988306199137483E+09, 2.919901914347695E+08,
2461183.500000000, A.D. 2026-May-23 00:00:00.0000, -6.096490696498407E+09, -1.991038100063613E+09, 2.921832328070040E+08,
2461190.500000000, A.D. 2026-May-30 00:00:00.0000, -6.095856803182164E+09, -1.993769704225930E+09, 2.923762193117240E+08,
2461197.500000000, A.D. 2026-Jun-06 00:00:00.0000, -6.095221745110954E+09, -1.996501007132082E+09, 2.925691508639649E+08,
2461204.500000000, A.D. 2026-Jun-13 00:00:00.0000, -6.094585521971541E+09, -1.999232004218069E+09, 2.927620275337687E+08,
2461211.500000000, A.D. 2026-Jun-20 00:00:00.0000, -6.093948134430129E+09, -2.001962691548971E+09, 2.929548494150218E+08,
2461218.500000000, A.D. 2026-Jun-27 00:00:00.0000, -6.093309583635561E+09, -2.004693065714168E+09, 2.931476165946793E+08,
2461225.500000000, A.D. 2026-Jul-04 00:00:00.0000, -6.092669871092224E+09, -2.007423123691915E+09, 2.933403291587878E+08,
2461232.500000000, A.D. 2026-Jul-11 00:00:00.0000, -6.092028998648734E+09, -2.010152862815113E+09, 2.935329872009580E+08,
2461239.500000000, A.D. 2026-Jul-18 00:00:00.0000, -6.091386968509700E+09, -2.012882280812501E+09, 2.937255908266247E+08,
2461246.500000000, A.D. 2026-Jul-25 00:00:00.0000, -6.090743783246161E+09, -2.015611375922465E+09, 2.939181401508415E+08,
2461253.500000000, A.D. 2026-Aug-01 00:00:00.0000, -6.090099445756583E+09, -2.018340147127530E+09, 2.941106352810740E+08,
2461260.500000000, A.D. 2026-Aug-08 00:00:00.0000, -6.089453958963623E+09, -2.021068594545315E+09, 2.943030762622092E+08,
2461267.500000000, A.D. 2026-Aug-15 00:00:00.0000, -6.088807324831676E+09, -2.023796719525462E+09, 2.944954629824160E+08,
2461274.500000000, A.D. 2026-Aug-22 00:00:00.0000, -6.088159543466338E+09, -2.026524523231073E+09, 2.946877952094182E+08,
$$EOE